NORAD_CAT_ID,OBJECT_NAME,OBJECT_TYPE,EPOCH,MEAN_MOTION,ECCENTRICITY,INCLINATION,RA_OF_ASC_NODE,ARG_OF_PERICENTER,MEAN_ANOMALY,BSTAR,MEAN_MOTION_DOT,MEAN_MOTION_DDOT,TLE_LINE0,TLE_LINE1,TLE_LINE2,SEMIMAJOR_AXIS,PERIOD,APOGEE,PERIGEE,DECAYED
54101.0,STARLINK-5204,PAYLOAD,2022-12-08 01:00:14,15.73251096,0.0003421,53.2167,268.1905,9.8759,350.2327,2.3921e-05,2.742e-05,0.0,0 STARLINK-5204,1 54101U 22136BC  22342.04183560  .00002742  00000-0  23921-4 0  9991,2 54101  53.2167 268.1905 0003421   9.8759 350.2327 15.73251096  7655,6727.75,91.53,351.916,347.31300000000016,0.0
54101.0,STARLINK-5204,PAYLOAD,2022-12-09 01:23:56,15.73207464,0.0003879,53.2167,263.1621,7.3539,352.7538,4.1638e-05,5.227e-05,0.0,0 STARLINK-5204,1 54101U 22136BC  22343.05828813  .00005227  00000-0  41638-4 0  9996,2 54101  53.2167 263.1621 0003879   7.3539 352.7538 15.73207464  8282,6727.874,91.533,352.349,347.129,0.0
54101.0,STARLINK-5204,PAYLOAD,2022-12-09 04:26:53,15.73207429,0.0003704,53.216,262.5302,7.5887,352.5188,3.8847e-05,4.834e-05,0.0,0 STARLINK-5204,1 54101U 22136BC  22343.18534296  .00004834  00000-0  38847-4 0  9990,2 54101  53.2160 262.5302 0003704   7.5887 352.5188 15.73207429  7839,6727.874,91.533,352.231,347.247,0.0
54101.0,STARLINK-5204,PAYLOAD,2022-12-09 18:10:17,15.73169479,0.0004063,53.2166,259.7027,7.0683,353.0394,-5.008e-05,-7.641e-05,0.0,0 STARLINK-5204,1 54101U 22136BC  22343.75714583 -.00007641  00000-0 -50080-4 0  9996,2 54101  53.2166 259.7027 0004063   7.0683 353.0394 15.73169479  8394,6727.982,91.535,352.581,347.11400000000015,0.0
54101.0,STARLINK-5204,PAYLOAD,2022-12-10 04:50:36,15.73223346,0.0003938,53.2154,257.5019,8.4885,351.6201,-2.4251e-05,-4.032e-05,0.0,0 STARLINK-5204,1 54101U 22136BC  22344.20181092 -.00004032  00000-0 -24251-4 0  9992,2 54101  53.2154 257.5019 0003938   8.4885 351.6201 15.73223346  8460,6727.829000000002,91.532,352.343,347.0440000000001,0.0
54101.0,STARLINK-5204,PAYLOAD,2022-12-10 21:36:53,15.73197141,0.0003708,53.2161,254.0427,8.7489,351.3595,5.6506e-06,1.69e-06,0.0,0 STARLINK-5204,1 54101U 22136BC  22344.90062140  .00000169  00000-0  56506-5 0  9995,2 54101  53.2161 254.0427 0003708   8.7489 351.3595 15.73197141  8579,6727.903,91.533,352.26300000000015,347.274,0.0
54101.0,STARLINK-5204,PAYLOAD,2022-12-11 03:42:48,15.73200653,0.0003693,53.2158,252.7844,6.8514,353.2556,4.2515e-06,-2.7e-07,0.0,0 STARLINK-5204,1 54101U 22136BC  22345.15473228 -.00000027  00000-0  42515-5 0  9995,2 54101  53.2158 252.7844 0003693   6.8514 353.2556 15.73200653  8148,6727.893,91.533,352.24300000000005,347.274,0.0
54101.0,STARLINK-5204,PAYLOAD,2022-12-12 04:06:31,15.73183829,0.000374,53.2162,247.7545,11.2904,348.8199,6.4694e-05,8.461e-05,0.0,0 STARLINK-5204,1 54101U 22136BC  22346.17119384  .00008461  00000-0  64694-4 0  9998,2 54101  53.2162 247.7545 0003740  11.2904 348.8199 15.73183829  8778,6727.941,91.534,352.3230000000001,347.29,0.0
54101.0,STARLINK-5204,PAYLOAD,2022-12-13 02:58:44,15.73193975,0.0003893,53.2158,243.0396,6.3729999999999976,353.7339,1.2654e-05,1.152e-05,0.0,0 STARLINK-5204,1 54101U 22136BC  22347.12412091  .00001152  00000-0  12654-4 0  9994,2 54101  53.2158 243.0396 0003893   6.3730 353.7339 15.73193975  8928,6727.9119999999975,91.534,352.397,347.158,0.0
54101.0,STARLINK-5204,PAYLOAD,2022-12-13 10:36:07,15.73205485,0.0003423,53.216,241.4688,7.56,352.5471,-2.3612e-06,-9.55e-06,0.0,0 STARLINK-5204,1 54101U 22136BC  22347.44175542 -.00000955  00000-0 -23612-5 0  9995,2 54101  53.2160 241.4688 0003423   7.5600 352.5471 15.73205485  8503,6727.88,91.533,352.047,347.44199999999995,0.0
54101.0,STARLINK-5204,PAYLOAD,2022-12-14 01:50:55,15.73208193,0.0003842,53.2155,238.3238,11.979,348.1321,1.3043e-05,1.208e-05,0.0,0 STARLINK-5204,1 54101U 22136BC  22348.07702766  .00001208  00000-0  13043-4 0  9995,2 54101  53.2155 238.3238 0003842  11.9790 348.1321 15.73208193  9074,6727.871999999999,91.533,352.32199999999995,347.152,0.0
54101.0,STARLINK-5204,PAYLOAD,2022-12-14 09:28:18,15.73218587,0.0003699,53.215,236.7517,11.9302,348.1806,1.4269e-05,1.381e-05,0.0,0 STARLINK-5204,1 54101U 22136BC  22348.39466087  .00001381  00000-0  14269-4 0  9996,2 54101  53.2150 236.7517 0003699  11.9302 348.1806 15.73218587  9122,6727.842,91.532,352.196,347.219,0.0
54101.0,STARLINK-5204,PAYLOAD,2022-12-15 09:51:58,15.7321908,0.000359,53.2149,231.7225,10.9865,349.1233,2.0333e-05,2.233e-05,0.0,0 STARLINK-5204,1 54101U 22136BC  22349.41109808  .00002233  00000-0  20333-4 0  9991,2 54101  53.2149 231.7225 0003590  10.9865 349.1233 15.73219080  8813,6727.840999999999,91.532,352.121,347.29,0.0
54101.0,STARLINK-5204,PAYLOAD,2022-12-15 12:54:56,15.73217744,0.000354,53.2143,231.0942,11.5598,348.5502,1.8094e-05,1.919e-05,0.0,0 STARLINK-5204,1 54101U 22136BC  22349.53815439  .00001919  00000-0  18094-4 0  9999,2 54101  53.2143 231.0942 0003540  11.5598 348.5502 15.73217744  9303,6727.845,91.532,352.091,347.32800000000015,0.0
54101.0,STARLINK-5204,PAYLOAD,2022-12-15 20:32:20,15.73217832,0.0003642,53.2143,229.5218,16.160999999999998,343.9526,8.2953e-06,5.41e-06,0.0,0 STARLINK-5204,1 54101U 22136BC  22349.85579386  .00000541  00000-0  82953-5 0  9998,2 54101  53.2143 229.5218 0003642  16.1610 343.9526 15.73217832  8885,6727.844,91.532,352.16,347.259,0.0
54101.0,STARLINK-5204,PAYLOAD,2022-12-16 08:44:10,15.7321295,0.0003934,53.2133,227.0061,18.5364,341.5799,-9.6284e-06,-1.977e-05,0.0,0 STARLINK-5204,1 54101U 22136BC  22350.36401419 -.00001977  00000-0 -96284-5 0  9995,2 54101  53.2133 227.0061 0003934  18.5364 341.5799 15.73212950  9433,6727.858,91.532,352.37,347.077,0.0
54101.0,STARLINK-5204,PAYLOAD,2022-12-16 20:56:01,15.7320713,0.0003288,53.2135,224.4928,14.4004,345.7109,-2.6861e-05,-4.394e-05,0.0,0 STARLINK-5204,1 54101U 22136BC  22350.87223571 -.00004394  00000-0 -26861-4 0  9991,2 54101  53.2135 224.4928 0003288  14.4004 345.7109 15.73207130  9048,6727.875,91.533,351.952,347.528,0.0
54101.0,STARLINK-5204,PAYLOAD,2022-12-17 01:30:28,15.73210625,0.0003455,53.2144,223.547,12.0262,348.084,-1.7408e-05,-3.068e-05,0.0,0 STARLINK-5204,1 54101U 22136BC  22351.06282421 -.00003068  00000-0 -17408-4 0  9996,2 54101  53.2144 223.5470 0003455  12.0262 348.0840 15.73210625  9542,6727.865,91.533,352.05400000000014,347.405,0.0
54101.0,STARLINK-5204,PAYLOAD,2022-12-17 09:07:52,15.73202765,0.0003454,53.2145,221.9755,14.3079,345.8039,4.4543e-06,2e-08,0.0,0 STARLINK-5204,1 54101U 22136BC  22351.38046490  .00000002  00000-0  44543-5 0  9999,2 54101  53.2145 221.9755 0003454  14.3079 345.8039 15.73202765  9126,6727.887,91.533,352.076,347.42800000000005,0.0
54101.0,STARLINK-5204,PAYLOAD,2022-12-17 19:48:13,15.73205002,0.000345,53.2129,219.7747,13.2849,346.8262,7.2301e-06,3.91e-06,0.0,0 STARLINK-5204,1 54101U 22136BC  22351.82515536  .00000391  00000-0  72301-5 0  9994,2 54101  53.2129 219.7747 0003450  13.2849 346.8262 15.73205002  9196,6727.880999999999,91.533,352.06699999999995,347.425,0.0
54101.0,STARLINK-5204,PAYLOAD,2022-12-18 00:22:39,15.73205333,0.0003239,53.2124,218.8318,9.2335,350.8745,-1.6575999999999996e-06,-8.56e-06,0.0,0 STARLINK-5204,1 54101U 22136BC  22352.01573844 -.00000856  00000-0 -16576-5 0  9992,2 54101  53.2124 218.8318 0003239   9.2335 350.8745 15.73205333  9227,6727.88,91.533,351.9240000000001,347.566,0.0
54101.0,STARLINK-5204,PAYLOAD,2022-12-18 21:43:24,15.73188936,0.000352,53.2127,214.4302,14.0489,346.0629,2.8494e-06,-2.24e-06,0.0,0 STARLINK-5204,1 54101U 22136BC  22352.90514452 -.00000224  00000-0  28494-5 0  9990,2 54101  53.2127 214.4302 0003520  14.0489 346.0629 15.73188936  9364,6727.927,91.534,352.16,347.423,0.0
54101.0,STARLINK-5204,PAYLOAD,2022-12-19 00:46:22,15.73189814,0.00034,53.214,213.8,13.4823,346.6288,7.4941e-06,4.28e-06,0.0,0 STARLINK-5204,1 54101U 22136BC  22353.03220297  .00000428  00000-0  74941-5 0  9999,2 54101  53.2140 213.8000 0003400  13.4823 346.6288 15.73189814  9856,6727.924,91.534,352.077,347.50199999999984,0.0
54101.0,STARLINK-5204,PAYLOAD,2022-12-19 16:01:09,15.73216502,0.0002947,53.2131,210.6563,18.1447,341.9678,1.7552e-05,1.843e-05,0.0,0 STARLINK-5204,1 54101U 22136BC  22353.66746626  .00001843  00000-0  17552-4 0  9993,2 54101  53.2131 210.6563 0002947  18.1447 341.9678 15.73216502  9489,6727.848000000001,91.532,351.696,347.73,0.0
54101.0,STARLINK-5204,PAYLOAD,2022-12-19 22:07:04,15.73207739,0.0003226,53.2137,209.3986,16.7158,343.3968,2.1842e-05,2.445e-05,0.0,0 STARLINK-5204,1 54101U 22136BC  22353.92158006  .00002445  00000-0  21842-4 0  9997,2 54101  53.2137 209.3986 0003226  16.7158 343.3968 15.73207739  9999,6727.873000000001,91.533,351.909,347.5680000000001,0.0
54101.0,STARLINK-5204,PAYLOAD,2022-12-20 07:15:55,15.73231328,0.0003244,53.2138,207.5133,10.4039,349.7047,3.8565e-05,4.8e-05,0.0,0 STARLINK-5204,1 54101U 22136BC  22354.30272593  .00004800  00000-0  38565-4 0  9995,2 54101  53.2138 207.5133 0003244  10.4039 349.7047 15.73231328  9587,6727.806,91.531,351.853,347.48800000000006,0.0
54101.0,STARLINK-5204,PAYLOAD,2022-12-20 20:59:15,15.73212411,0.0003367,53.2142,204.6822,11.2434,348.8661,2.505e-05,2.896e-05,0.0,0 STARLINK-5204,1 54101U 22136BC  22354.87448791  .00002896  00000-0  25050-4 0  9990,2 54101  53.2142 204.6822 0003367  11.2434 348.8661 15.73212411 10147,6727.86,91.532,351.99,347.46,0.0
54101.0,STARLINK-5204,PAYLOAD,2022-12-21 00:02:13,15.73211199,0.0003316,53.2145,204.0553,11.8266,348.2831,2.3162e-05,2.63e-05,0.0,0 STARLINK-5204,1 54101U 22136BC  22355.00154442  .00002630  00000-0  23162-4 0  9991,2 54101  53.2145 204.0553 0003316  11.8266 348.2831 15.73211199  9691,6727.863,91.533,351.959,347.497,0.0
54101.0,STARLINK-5204,PAYLOAD,2022-12-21 16:48:33,15.73181843,0.0003337,53.2143,200.5978,11.5874,348.5222,-3.7399e-05,-5.866e-05,0.0,0 STARLINK-5204,1 54101U 22136BC  22355.70039108 -.00005866  00000-0 -37399-4 0  9992,2 54101  53.2143 200.5978 0003337  11.5874 348.5222 15.73181843 10271,6727.946999999999,91.534,352.057,347.56699999999995,0.0
